ALOS-2                  
1 39766U 14029A   26067.23092845  .00001859  00000+0  25559-3 0  9992
2 39766  97.9195 165.8487 0001497  98.0802 262.0579 14.79496547636653
YAOGAN-29               
1 41038U 15069A   26067.17514691  .00001062  00000+0  13741-3 0  9999
2 41038  98.0142  95.6005 0002013  40.8762 319.2602 14.82995155555658
ASTRO-H (HITOMI)        
1 41337U 16012A   26067.11373107  .00004900  00000+0  28836-3 0  9994
2 41337  31.0009   6.7171 0009920 315.2979  44.6859 15.09993316551992
HXMT (HUIYAN)           
1 42758U 17034A   26067.19788640  .00009194  00000+0  45622-3 0  9999
2 42758  43.0154  24.9665 0032750 226.9133 132.8973 15.17438537482315
SAOCOM 1A               
1 43641U 18076A   26067.14022993  .00000721  00000+0  97041-4 0  9995
2 43641  97.8888 255.3343 0001280  85.4180 274.7179 14.82167481401138
H-2A R/B                
1 43682U 18084L   26067.10984252  .00028437  00000+0  67661-3 0  9998
2 43682  98.8730 284.1600 0025551  30.7005 329.5725 15.41267342405539
SAOCOM 1B               
1 46265U 20059A   26065.95626301  .00001349  00000+0  17595-3 0  9996
2 46265  97.8885 253.2654 0001504  81.2285 278.9098 14.82173062298346
CSS (TIANHE)            
1 48274U 21035A   26067.05173755  .00028649  00000+0  33952-3 0  9993
2 48274  41.4663 218.1268 0007000 262.9146  97.0897 15.60561665277351
COSMOS 2550             
1 48865U 21056A   26067.21317767 -.00000193  00000+0 -28484-7 0  9997
2 48865  67.1451  45.3978 0008335 269.5649  90.4550 15.33829454263236
CZ-2C R/B               
1 52794U 22058K   26067.09787482  .00047047  00000+0  68669-3 0  9999
2 52794  50.1897 326.4776 0042177 194.0797 165.9000 15.54100851209880
CZ-2C R/B               
1 54039U 22132E   26066.57757747  .00049183  00000+0  56501-3 0  9994
2 54039  97.2968  69.8304 0020767  98.3512 262.0101 15.61630713190043
GSLV R/B                
1 54149U 22138AN  26066.78200101  .00004339  00000+0  37522-3 0  9998
2 54149  87.3881 167.0012 0022797 153.2839 206.9573 14.96759254183641
